NORAD_CAT_ID,OBJECT_NAME,OBJECT_TYPE,EPOCH,MEAN_MOTION,ECCENTRICITY,INCLINATION,RA_OF_ASC_NODE,ARG_OF_PERICENTER,MEAN_ANOMALY,BSTAR,MEAN_MOTION_DOT,MEAN_MOTION_DDOT,TLE_LINE0,TLE_LINE1,TLE_LINE2,SEMIMAJOR_AXIS,PERIOD,APOGEE,PERIGEE,DECAYED
56490.0,STARLINK-5873,PAYLOAD,2024-06-16 13:45:45,14.98325917,0.0002888,69.999,255.8702,268.8104,91.2724,8.2332e-05,8.89e-06,0.0,0 STARLINK-5873,1 56490U 23064AU  24168.57344098  .00000889  00000-0  82332-4 0  9997,2 56490  69.9990 255.8702 0002888 268.8104  91.2724 14.98325917 61698,6950.206,96.107,574.078,570.063,0.0
56490.0,STARLINK-5873,PAYLOAD,2024-06-16 15:21:53,14.98326793,0.000288,69.999,255.7019,267.5303,92.5527,8.9265e-05,9.72e-06,0.0,0 STARLINK-5873,1 56490U 23064AU  24168.64020022  .00000972  00000-0  89265-4 0  9998,2 56490  69.9990 255.7019 0002880 267.5303  92.5527 14.98326793 61707,6950.203,96.107,574.069,570.066,0.0
56490.0,STARLINK-5873,PAYLOAD,2024-06-17 12:11:38,14.98329495,0.0002871,69.9992,253.5128,267.5119,92.5712,-8.204e-05,-1.072e-05,0.0,0 STARLINK-5873,1 56490U 23064AU  24169.50808429 -.00001072  00000-0 -82040-4 0  9997,2 56490  69.9992 253.5128 0002871 267.5119  92.5712 14.98329495 62193,6950.194,96.107,574.055,570.064,0.0
56490.0,STARLINK-5873,PAYLOAD,2024-06-18 12:13:38,14.98333942,0.0003003,69.9989,250.9883,271.1508,88.9307,8.8875e-05,9.68e-06,0.0,0 STARLINK-5873,1 56490U 23064AU  24170.50947696  .00000968  00000-0  88875-4 0  9992,2 56490  69.9989 250.9883 0003003 271.1508  88.9307 14.98333942 62347,6950.181,96.107,574.133,569.959,0.0
56490.0,STARLINK-5873,PAYLOAD,2024-06-18 13:49:46,14.98333709,0.0003009,69.9989,250.82,271.2219,88.8595,8.5268e-05,9.25e-06,0.0,0 STARLINK-5873,1 56490U 23064AU  24170.57623711  .00000925  00000-0  85268-4 0  9994,2 56490  69.9989 250.8200 0003009 271.2219  88.8595 14.98333709 61994,6950.181,96.107,574.138,569.955,0.0
56490.0,STARLINK-5873,PAYLOAD,2024-06-18 15:25:54,14.98334108,0.0003008,69.9989,250.6517,271.2387,88.8428,8.8485e-05,9.63e-06,0.0,0 STARLINK-5873,1 56490U 23064AU  24170.64299666  .00000963  00000-0  88485-4 0  9996,2 56490  69.9989 250.6517 0003008 271.2387  88.8428 14.98334108 62000,6950.18,96.107,574.136,569.955,0.0
56490.0,STARLINK-5873,PAYLOAD,2024-06-19 12:15:40,14.98329648,0.0003085,69.9988,248.4638,270.9259,89.1546,7.047e-05,7.48e-06,0.0,0 STARLINK-5873,1 56490U 23064AU  24171.51087969  .00000748  00000-0  70470-4 0  9990,2 56490  69.9988 248.4638 0003085 270.9259  89.1546 14.98329648 62498,6950.194,96.107,574.203,569.915,0.0
56490.0,STARLINK-5873,PAYLOAD,2024-06-19 13:51:48,14.98329052,0.0003106,69.9988,248.2955,270.9384,89.1419,6.2322e-05,6.51e-06,0.0,0 STARLINK-5873,1 56490U 23064AU  24171.57764029  .00000651  00000-0  62322-4 0  9995,2 56490  69.9988 248.2955 0003106 270.9384  89.1419 14.98329052 62141,6950.196,96.107,574.22,569.902,0.0
56490.0,STARLINK-5873,PAYLOAD,2024-06-19 15:27:56,14.98328934,0.0003109,69.9988,248.1272,270.9545,89.1257,5.9514e-05,6.17e-06,0.0,0 STARLINK-5873,1 56490U 23064AU  24171.64440046  .00000617  00000-0  59514-4 0  9994,2 56490  69.9988 248.1272 0003109 270.9545  89.1257 14.98328934 62153,6950.196,96.107,574.222,569.9,0.0
56490.0,STARLINK-5873,PAYLOAD,2024-06-20 13:53:49,14.98331225,0.0002937,69.9992,245.7721,266.7981,93.2841,-3.7122e-05,-5.36e-06,0.0,0 STARLINK-5873,1 56490U 23064AU  24172.57904161 -.00000536  00000-0 -37122-4 0  9993,2 56490  69.9992 245.7721 0002937 266.7981  93.2841 14.98331225 62292,6950.189,96.107,574.095,570.013,0.0
56490.0,STARLINK-5873,PAYLOAD,2024-06-20 15:29:57,14.98330989,0.0002945,69.9992,245.6037,267.0851,92.9971,-3.908e-05,-5.59e-06,0.0,0 STARLINK-5873,1 56490U 23064AU  24172.64580174 -.00000559  00000-0 -39080-4 0  9995,2 56490  69.9992 245.6037 0002945 267.0851  92.9971 14.98330989 62667,6950.19,96.107,574.102,570.008,0.0
56490.0,STARLINK-5873,PAYLOAD,2024-06-21 13:55:49,14.9833246,0.0003181,69.9985,243.2452,273.3873,86.6922,3.0037e-05,2.65e-06,0.0,0 STARLINK-5873,1 56490U 23064AU  24173.58043785  .00000265  00000-0  30037-4 0  9996,2 56490  69.9985 243.2452 0003181 273.3873  86.6922 14.98332460 62449,6950.185,96.107,574.261,569.839,0.0
56490.0,STARLINK-5873,PAYLOAD,2024-06-22 04:21:02,14.98329573,0.0003157,69.9985,241.7297,272.5538,87.526,2.7616e-05,2.36e-06,0.0,0 STARLINK-5873,1 56490U 23064AU  24174.18127949  .00000236  00000-0  27616-4 0  9995,2 56490  69.9985 241.7297 0003157 272.5538  87.5260 14.98329573 62896,6950.194,96.107,574.253,569.865,0.0
56490.0,STARLINK-5873,PAYLOAD,2024-06-22 13:57:50,14.98329479,0.0003192,69.9985,240.7201,270.9897,89.0897,1.8705e-05,1.3e-06,0.0,0 STARLINK-5873,1 56490U 23064AU  24174.58183975  .00000130  00000-0  18705-4 0  9992,2 56490  69.9985 240.7201 0003192 270.9897  89.0897 14.98329479 62594,6950.195,96.107,574.278,569.841,0.0
56490.0,STARLINK-5873,PAYLOAD,2024-06-23 04:23:03,14.98331507,0.0003212,69.9985,239.205,270.8346,89.2445,2.252e-05,1.76e-06,0.0,0 STARLINK-5873,1 56490U 23064AU  24175.18267775  .00000176  00000-0  22520-4 0  9990,2 56490  69.9985 239.2050 0003212 270.8346  89.2445 14.98331507 63047,6950.188,96.107,574.286,569.821,0.0
56490.0,STARLINK-5873,PAYLOAD,2024-06-23 13:59:51,14.98332787,0.0003156,69.9987,238.1953,267.5027,92.5771,4.3315e-05,4.24e-06,0.0,0 STARLINK-5873,1 56490U 23064AU  24175.58323542  .00000424  00000-0  43315-4 0  9990,2 56490  69.9987 238.1953 0003156 267.5027  92.5771 14.98332787 62741,6950.184,96.107,574.243,569.856,0.0
56490.0,STARLINK-5873,PAYLOAD,2024-06-24 04:25:03,14.98332142,0.0003242,69.9984,236.6802,267.4256,92.6532,4.7751e-05,4.77e-06,0.0,0 STARLINK-5873,1 56490U 23064AU  24176.18407402  .00000477  00000-0  47751-4 0  9991,2 56490  69.9984 236.6802 0003242 267.4256  92.6532 14.98332142 63194,6950.186,96.107,574.305,569.798,0.0
56490.0,STARLINK-5873,PAYLOAD,2024-06-24 14:01:52,14.98333784,0.0003243,69.9988,235.6706,267.6563,92.4225,5.8874e-05,6.1e-06,0.0,0 STARLINK-5873,1 56490U 23064AU  24176.58463197  .00000610  00000-0  58874-4 0  9995,2 56490  69.9988 235.6706 0003243 267.6563  92.4225 14.98333784 62890,6950.181,96.107,574.3,569.792,0.0
56490.0,STARLINK-5873,PAYLOAD,2024-06-25 04:27:05,14.98328237,0.000311,69.9992,234.1554,267.5003,92.58,-3.1614e-05,-4.7e-06,0.0,0 STARLINK-5873,1 56490U 23064AU  24177.18547765 -.00000470  00000-0 -31614-4 0  9995,2 56490  69.9992 234.1554 0003110 267.5003  92.5800 14.98328237 63349,6950.198,96.107,574.225,569.902,0.0
56490.0,STARLINK-5873,PAYLOAD,2024-06-25 14:03:53,14.98328073,0.0003149,69.9995,233.1459,268.0123,92.0675,-3.4937e-05,-5.1e-06,0.0,0 STARLINK-5873,1 56490U 23064AU  24177.58603825 -.00000510  00000-0 -34937-4 0  9995,2 56490  69.9995 233.1459 0003149 268.0123  92.0675 14.98328073 63046,6950.199,96.107,574.252,569.875,0.0
56490.0,STARLINK-5873,PAYLOAD,2024-06-26 04:29:05,14.98333849,0.000317,69.9996,231.6316,265.5394,94.5403,2.9976e-05,2.65e-06,0.0,0 STARLINK-5873,1 56490U 23064AU  24178.18687191  .00000265  00000-0  29976-4 0  9992,2 56490  69.9996 231.6316 0003170 265.5394  94.5403 14.98333849 63490,6950.181,96.107,574.249,569.843,0.0
56490.0,STARLINK-5873,PAYLOAD,2024-06-26 10:53:37,14.9833417,0.0003176,69.9997,230.9582,266.0633,94.0163,3.2181e-05,2.91e-06,0.0,0 STARLINK-5873,1 56490U 23064AU  24178.45391108  .00000291  00000-0  32181-4 0  9993,2 56490  69.9997 230.9582 0003176 266.0633  94.0163 14.98334170 63177,6950.18,96.107,574.252,569.838,0.0
56490.0,STARLINK-5873,PAYLOAD,2024-06-27 04:31:06,14.98328465,0.0003297,69.9993,229.1065,266.9973,93.0808,4.7993e-05,4.8e-06,0.0,0 STARLINK-5873,1 56490U 23064AU  24179.18827367  .00000480  00000-0  47993-4 0  9992,2 56490  69.9993 229.1065 0003297 266.9973  93.0808 14.98328465 63646,6950.198,96.107,574.354,569.771,0.0
56490.0,STARLINK-5873,PAYLOAD,2024-06-27 12:31:47,14.98328297,0.0003341,69.9992,228.2643,269.6031,90.4745,4.045e-05,3.9e-06,0.0,0 STARLINK-5873,1 56490U 23064AU  24179.52207448  .00000390  00000-0  40450-4 0  9993,2 56490  69.9992 228.2643 0003341 269.6031  90.4745 14.98328297 63332,6950.198,96.107,574.385,569.741,0.0
56490.0,STARLINK-5873,PAYLOAD,2024-06-28 04:33:07,14.98331276,0.0003304,69.9992,226.581,268.5266,91.5515,1.0093e-07,-9.2e-07,0.0,0 STARLINK-5873,1 56490U 23064AU  24180.18967365 -.00000092  00000-0  10093-6 0  9990,2 56490  69.9992 226.5810 0003304 268.5266  91.5515 14.98331276 63794,6950.189,96.107,574.35,569.758,0.0
56490.0,STARLINK-5873,PAYLOAD,2024-06-28 12:33:48,14.98318911,0.0003718,69.9992,225.7385,272.2732,87.8002,0.00029998,3.487e-05,0.0,0 STARLINK-5873,1 56490U 23064AU  24180.52347357  .00003487  00000-0  29998-3 0  9992,2 56490  69.9992 225.7385 0003718 272.2732  87.8002 14.98318911 63487,6950.227,96.108,574.676,569.508,0.0
56490.0,STARLINK-5873,PAYLOAD,2024-06-29 04:35:08,14.98329571,0.0003363,69.999,224.056,268.3663,91.711,2.59e-05,2.16e-06,0.0,0 STARLINK-5873,1 56490U 23064AU  24181.19107302  .00000216  00000-0  25900-4 0  9997,2 56490  69.9990 224.0560 0003363 268.3663  91.7110 14.98329571 63946,6950.194,96.107,574.397,569.722,0.0
56490.0,STARLINK-5873,PAYLOAD,2024-06-29 12:35:48,14.98329314,0.0003342,69.999,223.2139,267.8916,92.1861,6.0059e-05,6.24e-06,0.0,0 STARLINK-5873,1 56490U 23064AU  24181.52487236  .00000624  00000-0  60059-4 0  9998,2 56490  69.9990 223.2139 0003342 267.8916  92.1861 14.98329314 63630,6950.195,96.107,574.383,569.737,0.0
56490.0,STARLINK-5873,PAYLOAD,2024-06-29 20:36:29,14.9832972,0.000341,69.9989,222.3715,274.2158,85.8612,-4.4324e-05,-6.22e-06,0.0,0 STARLINK-5873,1 56490U 23064AU  24181.85867500 -.00000622  00000-0 -44324-4 0  9997,2 56490  69.9989 222.3715 0003410 274.2158  85.8612 14.98329720 63683,6950.194,96.107,574.429,569.689,0.0
56490.0,STARLINK-5873,PAYLOAD,2024-06-30 04:37:09,14.98384308,0.000388,69.9987,221.5302,268.1861,91.8853,-0.00094569,-0.00011375,0.0,0 STARLINK-5873,1 56490U 23064AU  24182.19247132 -.00011375  00000-0 -94569-3 0  9990,2 56490  69.9987 221.5302 0003880 268.1861  91.8853 14.98384308 64091,6950.025,96.104,574.587,569.193,0.0
